NORAD_CAT_ID,OBJECT_NAME,OBJECT_TYPE,EPOCH,MEAN_MOTION,ECCENTRICITY,INCLINATION,RA_OF_ASC_NODE,ARG_OF_PERICENTER,MEAN_ANOMALY,BSTAR,MEAN_MOTION_DOT,MEAN_MOTION_DDOT,TLE_LINE0,TLE_LINE1,TLE_LINE2,SEMIMAJOR_AXIS,PERIOD,APOGEE,PERIGEE,DECAYED
51876.0,STARLINK-3583,PAYLOAD,2023-05-21 15:52:44,15.08834325,9.46e-05,53.2155,281.6704,113.9833,246.1258,-5.9377e-05,-1.232e-05,0.0,0 STARLINK-3583,1 51876U 22022AA  23141.66162350 -.00001232  00000-0 -59377-4 0  9990,2 51876  53.2155 281.6704 0000946 113.9833 246.1258 15.08834325 68679,6917.898,95.438,540.417,539.108,0.0
51876.0,STARLINK-3583,PAYLOAD,2023-05-22 09:21:58,15.08845677,0.0001284,53.2159,278.3978,120.1016,240.0104,0.00014634,2.042e-05,0.0,0 STARLINK-3583,1 51876U 22022AA  23142.39025985  .00002042  00000-0  14634-3 0  9997,2 51876  53.2159 278.3978 0001284 120.1016 240.0104 15.08845677 68785,6917.863,95.437,540.616,538.84,0.0
51876.0,STARLINK-3583,PAYLOAD,2023-05-22 15:43:30,15.08853861,0.0001056,53.2156,277.213,85.8695,274.2418,0.00029571,4.423e-05,0.0,0 STARLINK-3583,1 51876U 22022AA  23142.65521648  .00004423  00000-0  29571-3 0  9994,2 51876  53.2156 277.2130 0001056  85.8695 274.2418 15.08853861 68823,6917.838,95.437,540.434,538.972,0.0
51876.0,STARLINK-3583,PAYLOAD,2023-05-23 09:12:46,15.08836731,0.0001019,53.2146,273.9435,75.7266,284.3839,0.00018052,2.586e-05,0.0,0 STARLINK-3583,1 51876U 22022AA  23143.38386727  .00002586  00000-0  18052-3 0  9992,2 51876  53.2146 273.9435 0001019  75.7266 284.3839 15.08836731 68932,6917.89,95.438,540.46,539.05,0.0
51876.0,STARLINK-3583,PAYLOAD,2023-05-23 13:58:55,15.08839026,9.89e-05,53.2158,273.0492,92.055,268.0555,0.00020172,2.924e-05,0.0,0 STARLINK-3583,1 51876U 22022AA  23143.58258688  .00002924  00000-0  20172-3 0  9990,2 51876  53.2158 273.0492 0000989  92.0550 268.0555 15.08839026 68969,6917.883,95.438,540.433,539.064,0.0
51876.0,STARLINK-3583,PAYLOAD,2023-05-24 15:25:05,15.08842199,9.51e-05,53.2165,268.2932,103.3742,256.7356,0.00012344,1.677e-05,0.0,0 STARLINK-3583,1 51876U 22022AA  23144.64242555  .00001677  00000-0  12344-3 0  9990,2 51876  53.2165 268.2932 0000951 103.3742 256.7356 15.08842199 69127,6917.874,95.437,540.397,539.081,0.0
51876.0,STARLINK-3583,PAYLOAD,2023-05-25 16:51:15,15.08843601,0.000108,53.2166,263.5338,86.4132,273.6984,0.00021391,3.119e-05,0.0,0 STARLINK-3583,1 51876U 22022AA  23145.70226784  .00003119  00000-0  21391-3 0  9999,2 51876  53.2166 263.5338 0001080  86.4132 273.6984 15.08843601 69285,6917.869,95.437,540.482,538.987,0.0
51876.0,STARLINK-3583,PAYLOAD,2023-05-26 13:31:16,15.08843892,9.66e-05,53.2159,259.6671,76.3633,283.7467,0.00012655,1.727e-05,0.0,0 STARLINK-3583,1 51876U 22022AA  23146.56338659  .00001727  00000-0  12655-3 0  9995,2 51876  53.2159 259.6671 0000966  76.3633 283.7467 15.08843892 69414,6917.868,95.437,540.402,539.065,0.0
51876.0,STARLINK-3583,PAYLOAD,2023-05-26 16:42:02,15.08841747,9.01e-05,53.216,259.0732,85.0434,275.0661,0.00011618,1.562e-05,0.0,0 STARLINK-3583,1 51876U 22022AA  23146.69586795  .00001562  00000-0  11618-3 0  9990,2 51876  53.2160 259.0732 0000901  85.0434 275.0661 15.08841747 69432,6917.875,95.437,540.363,539.117,0.0
51876.0,STARLINK-3583,PAYLOAD,2023-05-27 16:32:49,15.08846276,7.94e-05,53.2165,254.6122,78.5925,281.5156,7.3267e-05,8.79e-06,0.0,0 STARLINK-3583,1 51876U 22022AA  23147.68946743  .00000879  00000-0  73267-4 0  9992,2 51876  53.2165 254.6122 0000794  78.5925 281.5156 15.08846276 69582,6917.861,95.437,540.275,539.177,0.0
51876.0,STARLINK-3583,PAYLOAD,2023-05-28 00:29:45,15.08843555,7.93e-05,53.2166,253.125,78.3953,281.7128,5.2178e-05,5.43e-06,0.0,0 STARLINK-3583,1 51876U 22022AA  23148.02066859  .00000543  00000-0  52178-4 0  9998,2 51876  53.2166 253.1250 0000793  78.3953 281.7128 15.08843555 69631,6917.87,95.437,540.283,539.186,0.0
51876.0,STARLINK-3583,PAYLOAD,2023-05-28 16:23:36,15.08849818,8.18e-05,53.2164,250.1512,78.9378,281.1706,0.00017082,2.433e-05,0.0,0 STARLINK-3583,1 51876U 22022AA  23148.68306154  .00002433  00000-0  17082-3 0  9999,2 51876  53.2164 250.1512 0000818  78.9378 281.1706 15.08849818 69737,6917.85,95.437,540.281,539.149,0.0
51876.0,STARLINK-3583,PAYLOAD,2023-05-29 09:52:51,15.08839107,8.52e-05,53.2158,246.8799,79.6272,280.4816,7.5825e-05,9.19e-06,0.0,0 STARLINK-3583,1 51876U 22022AA  23149.41170959  .00000919  00000-0  75825-4 0  9990,2 51876  53.2158 246.8799 0000852  79.6272 280.4816 15.08839107 69844,6917.883,95.438,540.338,539.159,0.0
51876.0,STARLINK-3583,PAYLOAD,2023-05-29 13:03:37,15.08843458,8.62e-05,53.2164,246.2838,91.8563,268.2528,6.4675e-05,7.42e-06,0.0,0 STARLINK-3583,1 51876U 22022AA  23149.54418615  .00000742  00000-0  64675-4 0  9993,2 51876  53.2164 246.2838 0000862  91.8563 268.2528 15.08843458 69869,6917.87,95.437,540.331,539.138,0.0
51876.0,STARLINK-3583,PAYLOAD,2023-05-29 16:14:23,15.08844476,8.66e-05,53.2164,245.6889,93.1801,266.929,6.8862e-05,8.09e-06,0.0,0 STARLINK-3583,1 51876U 22022AA  23149.67666477  .00000809  00000-0  68862-4 0  9994,2 51876  53.2164 245.6889 0000866  93.1801 266.9290 15.08844476 69886,6917.867,95.437,540.331,539.133,0.0
51876.0,STARLINK-3583,PAYLOAD,2023-05-30 11:19:01,15.08839993,9.95e-05,53.2169,242.119,103.2975,256.8128,-9.0594e-06,-4.32e-06,0.0,0 STARLINK-3583,1 51876U 22022AA  23150.47154894 -.00000432  00000-0 -90594-5 0  9991,2 51876  53.2169 242.1190 0000995 103.2975 256.8128 15.08839993 70008,6917.88,95.438,540.434,539.057,0.0
51876.0,STARLINK-3583,PAYLOAD,2023-05-30 12:54:24,15.08838799,9.95e-05,53.2168,241.8215,108.531,251.579,-5.4662e-06,-3.75e-06,0.0,0 STARLINK-3583,1 51876U 22022AA  23150.53778905 -.00000375  00000-0 -54662-5 0  9995,2 51876  53.2168 241.8215 0000995 108.5310 251.5790 15.08838799 70013,6917.884,95.438,540.437,539.061,0.0
51876.0,STARLINK-3583,PAYLOAD,2023-05-31 11:09:48,15.08841146,8.83e-05,53.2161,237.6616,92.3215,267.7879,6.1338e-05,6.89e-06,0.0,0 STARLINK-3583,1 51876U 22022AA  23151.46514671  .00000689  00000-0  61338-4 0  9999,2 51876  53.2161 237.6616 0000883  92.3215 267.7879 15.08841146 70156,6917.877,95.437,540.353,539.131,0.0
51876.0,STARLINK-3583,PAYLOAD,2023-05-31 15:55:57,15.08842475,9.41e-05,53.2168,236.7676,93.6318,266.4781,6.7985e-05,7.94e-06,0.0,0 STARLINK-3583,1 51876U 22022AA  23151.66386537  .00000794  00000-0  67985-4 0  9990,2 51876  53.2168 236.7676 0000941  93.6318 266.4781 15.08842475 70189,6917.873,95.437,540.389,539.087,0.0
51876.0,STARLINK-3583,PAYLOAD,2023-05-31 22:17:30,15.08842255,7.89e-05,53.2159,235.5817,75.7946,284.3134,1.2251e-05,-9.3e-07,0.0,0 STARLINK-3583,1 51876U 22022AA  23151.92882688 -.00000093  00000-0  12251-4 0  9996,2 51876  53.2159 235.5817 0000789  75.7946 284.3134 15.08842255 70223,6917.873,95.437,540.284,539.193,0.0
51876.0,STARLINK-3583,PAYLOAD,2023-06-01 11:00:35,15.08839325,9.38e-05,53.2166,233.1993,99.404,260.7058,5.744e-05,6.27e-06,0.0,0 STARLINK-3583,1 51876U 22022AA  23152.45874913  .00000627  00000-0  57440-4 0  9998,2 51876  53.2166 233.1993 0000938  99.4040 260.7058 15.08839325 70300,6917.882,95.438,540.396,539.099,0.0
51876.0,STARLINK-3583,PAYLOAD,2023-06-02 12:26:46,15.08836657,8.36e-05,53.2155,228.445,88.1319,271.9769,2.5185e-05,1.13e-06,0.0,0 STARLINK-3583,1 51876U 22022AA  23153.51859539  .00000113  00000-0  25185-4 0  9994,2 51876  53.2155 228.4450 0000836  88.1319 271.9769 15.08836657 70469,6917.891,95.438,540.334,539.177,0.0
51876.0,STARLINK-3583,PAYLOAD,2023-06-02 14:02:09,15.08838371,8.45e-05,53.2155,228.1475,92.562,267.5469,3.5836e-05,2.83e-06,0.0,0 STARLINK-3583,1 51876U 22022AA  23153.58483403  .00000283  00000-0  35836-4 0  9996,2 51876  53.2155 228.1475 0000845  92.5620 267.5469 15.08838371 70471,6917.885,95.438,540.335,539.166,0.0
51876.0,STARLINK-3583,PAYLOAD,2023-06-03 12:17:33,15.08840655,8.67e-05,53.2157,223.985,92.4568,267.6523,5.8436e-05,6.42e-06,0.0,0 STARLINK-3583,1 51876U 22022AA  23154.51219378  .00000642  00000-0  58436-4 0  9998,2 51876  53.2157 223.9850 0000867  92.4568 267.6523 15.08840655 70613,6917.878,95.438,540.343,539.144,0.0
51876.0,STARLINK-3583,PAYLOAD,2023-06-03 21:49:52,15.08833874,8.18e-05,53.2149,222.1993,101.5803,258.5281,9.3781e-05,1.205e-05,0.0,0 STARLINK-3583,1 51876U 22022AA  23154.90963750  .00001205  00000-0  93781-4 0  9999,2 51876  53.2149 222.1993 0000818 101.5803 258.5281 15.08833874 70674,6917.899,95.438,540.33,539.198,0.0
51876.0,STARLINK-3583,PAYLOAD,2023-06-04 10:32:58,15.08821419,7.47e-05,53.2158,219.8194,87.0845,273.0233,0.00031543,4.733e-05,0.0,0 STARLINK-3583,1 51876U 22022AA  23155.43956231  .00004733  00000-0  31543-3 0  9990,2 51876  53.2158 219.8194 0000747  87.0845 273.0233 15.08821419 70755,6917.937,95.439,540.319,539.285,0.0
51876.0,STARLINK-3583,PAYLOAD,2023-06-04 21:40:39,15.08841872,9.03e-05,53.2164,217.7379,85.9124,274.1971,9.1238e-05,1.165e-05,0.0,0 STARLINK-3583,1 51876U 22022AA  23155.90323371  .00001165  00000-0  91238-4 0  9999,2 51876  53.2164 217.7379 0000903  85.9124 274.1971 15.08841872 70829,6917.875,95.437,540.364,539.115,0.0
51876.0,STARLINK-3583,PAYLOAD,2023-06-05 04:02:11,15.0884309,8.89e-05,53.2159,216.5487,84.5592,275.5501,8.9835e-05,1.142e-05,0.0,0 STARLINK-3583,1 51876U 22022AA  23156.16819272  .00001142  00000-0  89835-4 0  9993,2 51876  53.2159 216.5487 0000889  84.5592 275.5501 15.08843090 70869,6917.871,95.437,540.351,539.121,0.0
51876.0,STARLINK-3583,PAYLOAD,2023-06-05 13:34:30,15.08849574,8.65e-05,53.2152,214.7654,78.6792,281.4298,0.00012131,1.644e-05,0.0,0 STARLINK-3583,1 51876U 22022AA  23156.56562661  .00001644  00000-0  12131-3 0  9995,2 51876  53.2152 214.7654 0000865  78.6792 281.4298 15.08849574 70927,6917.851,95.437,540.315,539.118,0.0
51876.0,STARLINK-3583,PAYLOAD,2023-06-06 08:39:09,15.08831595,0.0001044,53.216,211.1989,72.4534,287.6573,4.3466e-06,-2.19e-06,0.0,0 STARLINK-3583,1 51876U 22022AA  23157.36052190 -.00000219  00000-0  43466-5 0  9990,2 51876  53.2160 211.1989 0001044  72.4534 287.6573 15.08831595 71046,6917.906,95.438,540.493,539.049,0.0
